COSMOS 2251 DEB         
1 33819U 93036BL  17345.79113948  .00000340  00000-0  15121-3 0  9997
2 33819  74.1835  43.7231 0099393 356.5678 120.8399 14.23936456458289
